{"type": "FeatureCollection", "features": [ {"type": "Feature", "properties": {"norad_id": 30160, "name": "FENGYUN 1C DEB", "group": "fengyun-1c-debris", "lat": -67.86784329754644, "lon": 87.35240845642006, "alt_km": 1170.5381423470872, "timestamp": "2025-12-06T16:45:42.996395+00:00", "meta": {"OBJECT_NAME": "FENGYUN 1C DEB", "OBJECT_ID": "1999-025TR", "EPOCH": "2025-12-06T03:09:04.824576", "MEAN_MOTION": 13.42878306, "ECCENTRICITY": 0.03424534, "INCLINATION": 98.8855, "RA_OF_ASC_NODE": 289.4716, "ARG_OF_PERICENTER": 144.499, "MEAN_ANOMALY": 241.1395, "EPHEMERIS_TYPE": 0, "CLASSIFICATION_TYPE": "U", "NORAD_CAT_ID": 30160, "ELEMENT_SET_NO": 999, "REV_AT_EPOCH": 92325, "BSTAR": 0.001141024, "MEAN_MOTION_DOT": 8.85e-06, "MEAN_MOTION_DDOT": 0}, "tle": {"line1": "1 30160U 99025TR  25340.13130584  .00000885  00000+0  11410-2 0  9993", "line2": "2 30160  98.8855 289.4716 0342453 144.4990 241.1395 13.42878306923252"}}, "geometry": {"type": "Point", "coordinates": [87.35240845642006, -67.86784329754644]}}, {"type": "Feature", "properties": {"norad_id": 30161, "name": "FENGYUN 1C DEB", "group": "fengyun-1c-debris", "lat": 15.34976746986294, "lon": -35.15729496505571, "alt_km": 1122.4191468006056, "timestamp": "2025-12-06T16:45:42.996406+00:00", "meta": {"OBJECT_NAME": "FENGYUN 1C DEB", "OBJECT_ID": "1999-025TS", "EPOCH": "2025-12-05T21:27:17.196192", "MEAN_MOTION": 13.49686514, "ECCENTRICITY": 0.03286818, "INCLINATION": 100.5043, "RA_OF_ASC_NODE": 326.9134, "ARG_OF_PERICENTER": 274.4171, "MEAN_ANOMALY": 150.7637, "EPHEMERIS_TYPE": 0, "CLASSIFICATION_TYPE": "U", "NORAD_CAT_ID": 30161, "ELEMENT_SET_NO": 999, "REV_AT_EPOCH": 92467, "BSTAR": 0.0033348109, "MEAN_MOTION_DOT": 2.899e-05, "MEAN_MOTION_DDOT": 0}, "tle": {"line1": "1 30161U 99025TS  25339.89394903  .00002899  00000+0  33348-2 0  9993", "line2": "2 30161 100.5043 326.9134 0328681 274.4171 150.7637 13.49686514924672"}}, "geometry": {"type": "Point", "coordinates": [-35.15729496505571, 15.34976746986294]}}, {"type": "Feature", "properties": {"norad_id": 30162, "name": "FENGYUN 1C DEB", "group": "fengyun-1c-debris", "lat": 78.42701938988083, "lon": -88.2334247376086, "alt_km": 1052.1818294598943, "timestamp": "2025-12-06T16:45:42.996416+00:00", "meta": {"OBJECT_NAME": "FENGYUN 1C DEB", "OBJECT_ID": "1999-025TT", "EPOCH": "2025-12-06T02:15:00.425088", "MEAN_MOTION": 13.53357019, "ECCENTRICITY": 0.03136663, "INCLINATION": 99.4888, "RA_OF_ASC_NODE": 36.4312, "ARG_OF_PERICENTER": 6.451, "MEAN_ANOMALY": 22.157, "EPHEMERIS_TYPE": 0, "CLASSIFICATION_TYPE": "U", "NORAD_CAT_ID": 30162, "ELEMENT_SET_NO": 999, "REV_AT_EPOCH": 92571, "BSTAR": 0.0037158606, "MEAN_MOTION_DOT": 3.363e-05, "MEAN_MOTION_DDOT": 0}, "tle": {"line1": "1 30162U 99025TT  25340.09375492  .00003363  00000+0  37159-2 0  9991", "line2": "2 30162  99.4888  36.4312 0313666   6.4510  22.1570 13.53357019925718"}}, "geometry": {"type": "Point", "coordinates": [-88.2334247376086, 78.42701938988083]}}, {"type": "Feature", "properties": {"norad_id": 30163, "name": "FENGYUN 1C DEB", "group": "fengyun-1c-debris", "lat": 62.062717291686326, "lon": 79.85235208713253, "alt_km": 1386.5859218151472, "timestamp": "2025-12-06T16:45:42.996426+00:00", "meta": {"OBJECT_NAME": "FENGYUN 1C DEB", "OBJECT_ID": "1999-025TU", "EPOCH": "2025-12-06T05:49:35.891328", "MEAN_MOTION": 13.38748748, "ECCENTRICITY": 0.03731147, "INCLINATION": 98.7011, "RA_OF_ASC_NODE": 96.2446, "ARG_OF_PERICENTER": 248.7936, "MEAN_ANOMALY": 139.476, "EPHEMERIS_TYPE": 0, "CLASSIFICATION_TYPE": "U", "NORAD_CAT_ID": 30163, "ELEMENT_SET_NO": 999, "REV_AT_EPOCH": 91858, "BSTAR": 0.0036573141, "MEAN_MOTION_DOT": 2.887e-05, "MEAN_MOTION_DDOT": 0}, "tle": {"line1": "1 30163U 99025TU  25340.24277652  .00002887  00000+0  36573-2 0  9997", "line2": "2 30163  98.7011  96.2446 0373114 248.7936 139.4760 13.38748748918584"}}, "geometry": {"type": "Point", "coordinates": [79.85235208713253, 62.062717291686326]}}, {"type": "Feature", "properties": {"norad_id": 30167, "name": "FENGYUN 1C DEB", "group": "fengyun-1c-debris", "lat": 33.36558405602587, "lon": -108.53334621505881, "alt_km": 636.4765696585428, "timestamp": "2025-12-06T16:45:42.996437+00:00", "meta": {"OBJECT_NAME": "FENGYUN 1C DEB", "OBJECT_ID": "1999-025TY", "EPOCH": "2025-12-06T00:18:41.689728", "MEAN_MOTION": 14.48490614, "ECCENTRICITY": 0.01440276, "INCLINATION": 98.9687, "RA_OF_ASC_NODE": 64.7696, "ARG_OF_PERICENTER": 174.5579, "MEAN_ANOMALY": 0.057, "EPHEMERIS_TYPE": 0, "CLASSIFICATION_TYPE": "U", "NORAD_CAT_ID": 30167, "ELEMENT_SET_NO": 999, "REV_AT_EPOCH": 99261, "BSTAR": 0.0010506189, "MEAN_MOTION_DOT": 4.441e-05, "MEAN_MOTION_DDOT": 0}, "tle": {"line1": "1 30167U 99025TY  25340.01298252  .00004441  00000+0  10506-2 0  9991", "line2": "2 30167  98.9687  64.7696 0144027 174.5579   0.0570 14.48490614992610"}}, "geometry": {"type": "Point", "coordinates": [-108.53334621505881, 33.36558405602587]}}, {"type": "Feature", "properties": {"norad_id": 30168, "name": "FENGYUN 1C DEB", "group": "fengyun-1c-debris", "lat": 55.165816628170035, "lon": -115.4657428009786, "alt_km": 663.9604494539662, "timestamp": "2025-12-06T16:45:42.996447+00:00", "meta": {"OBJECT_NAME": "FENGYUN 1C DEB", "OBJECT_ID": "1999-025TZ", "EPOCH": "2025-12-05T03:49:14.227680", "MEAN_MOTION": 14.52652544, "ECCENTRICITY": 0.01008979, "INCLINATION": 97.3919, "RA_OF_ASC_NODE": 52.4257, "ARG_OF_PERICENTER": 177.6487, "MEAN_ANOMALY": 182.5207, "EPHEMERIS_TYPE": 0, "CLASSIFICATION_TYPE": "U", "NORAD_CAT_ID": 30168, "ELEMENT_SET_NO": 999, "REV_AT_EPOCH": 98201, "BSTAR": 0.0047636855, "MEAN_MOTION_DOT": 0.00020876, "MEAN_MOTION_DDOT": 0}, "tle": {"line1": "1 30168U 99025TZ  25339.15919245  .00020876  00000+0  47637-2 0  9992", "line2": "2 30168  97.3919  52.4257 0100897 177.6487 182.5207 14.52652544982011"}}, "geometry": {"type": "Point", "coordinates": [-115.4657428009786, 55.165816628170035]}}, {"type": "Feature", "properties": {"norad_id": 30169, "name": "FENGYUN 1C DEB", "group": "fengyun-1c-debris", "lat": -9.642180007856997, "lon": -131.28235097100162, "alt_km": 618.0079040246255, "timestamp": "2025-12-06T16:45:42.996457+00:00", "meta": {"OBJECT_NAME": "FENGYUN 1C DEB", "OBJECT_ID": "1999-025UA", "EPOCH": "2025-12-05T22:34:42.846816", "MEAN_MOTION": 14.57764893, "ECCENTRICITY": 0.02137337, "INCLINATION": 98.3369, "RA_OF_ASC_NODE": 49.3856, "ARG_OF_PERICENTER": 248.1385, "MEAN_ANOMALY": 289.7388, "EPHEMERIS_TYPE": 0, "CLASSIFICATION_TYPE": "U", "NORAD_CAT_ID": 30169, "ELEMENT_SET_NO": 999, "REV_AT_EPOCH": 97624, "BSTAR": 0.0037055994, "MEAN_MOTION_DOT": 0.00023227, "MEAN_MOTION_DDOT": 0}, "tle": {"line1": "1 30169U 99025UA  25339.94077369  .00023227  00000+0  37056-2 0  9999", "line2": "2 30169  98.3369  49.3856 0213733 248.1385 289.7388 14.57764893976241"}}, "geometry": {"type": "Point", "coordinates": [-131.28235097100162, -9.642180007856997]}}, {"type": "Feature", "properties": {"norad_id": 30170, "name": "FENGYUN 1C DEB", "group": "fengyun-1c-debris", "lat": 12.111891752105088, "lon": -33.98970852022749, "alt_km": 884.4105955218483, "timestamp": "2025-12-06T16:45:42.996467+00:00", "meta": {"OBJECT_NAME": "FENGYUN 1C DEB", "OBJECT_ID": "1999-025UB", "EPOCH": "2025-12-05T10:26:27.748896", "MEAN_MOTION": 14.00291402, "ECCENTRICITY": 0.00768928, "INCLINATION": 98.848, "RA_OF_ASC_NODE": 326.7034, "ARG_OF_PERICENTER": 295.2722, "MEAN_ANOMALY": 191.0174, "EPHEMERIS_TYPE": 0, "CLASSIFICATION_TYPE": "U", "NORAD_CAT_ID": 30170, "ELEMENT_SET_NO": 999, "REV_AT_EPOCH": 96313, "BSTAR": 0.00082525934, "MEAN_MOTION_DOT": 1.209e-05, "MEAN_MOTION_DDOT": 0}, "tle": {"line1": "1 30170U 99025UB  25339.43504339  .00001209  00000+0  82526-3 0  9996", "line2": "2 30170  98.8480 326.7034 0076892 295.2722 191.0174 14.00291402963134"}}, "geometry": {"type": "Point", "coordinates": [-33.98970852022749, 12.111891752105088]}}, {"type": "Feature", "properties": {"norad_id": 30171, "name": "FENGYUN 1C DEB", "group": "fengyun-1c-debris", "lat": -49.75669122309647, "lon": -151.02873106134095, "alt_km": 789.427464652983, "timestamp": "2025-12-06T16:45:42.996478+00:00", "meta": {"OBJECT_NAME": "FENGYUN 1C DEB", "OBJECT_ID": "1999-025UC", "EPOCH": "2025-12-06T01:31:33.135744", "MEAN_MOTION": 13.9685124, "ECCENTRICITY": 0.01845708, "INCLINATION": 98.3989, "RA_OF_ASC_NODE": 198.338, "ARG_OF_PERICENTER": 286.2067, "MEAN_ANOMALY": 71.8859, "EPHEMERIS_TYPE": 0, "CLASSIFICATION_TYPE": "U", "NORAD_CAT_ID": 30171, "ELEMENT_SET_NO": 999, "REV_AT_EPOCH": 96177, "BSTAR": 0.00035494721, "MEAN_MOTION_DOT": 5.3e-06, "MEAN_MOTION_DDOT": 0}, "tle": {"line1": "1 30171U 99025UC  25340.06357796  .00000530  00000+0  35495-3 0  9990", "line2": "2 30171  98.3989 198.3380 0184570 286.2067  71.8859 13.96851240961775"}}, "geometry": {"type": "Point", "coordinates": [-151.02873106134095, -49.75669122309647]}}, {"type": "Feature", "properties": {"norad_id": 30172, "name": "FENGYUN 1C DEB", "group": "fengyun-1c-debris", "lat": -19.730778284243584, "lon": -37.06732409178437, "alt_km": 881.3779772524886, "timestamp": "2025-12-06T16:45:42.996488+00:00", "meta": {"OBJECT_NAME": "FENGYUN 1C DEB", "OBJECT_ID": "1999-025UD", "EPOCH": "2025-12-06T05:03:13.268736", "MEAN_MOTION": 14.12414498, "ECCENTRICITY": 0.00688363, "INCLINATION": 99.2335, "RA_OF_ASC_NODE": 319.0856, "ARG_OF_PERICENTER": 220.7129, "MEAN_ANOMALY": 159.5453, "EPHEMERIS_TYPE": 0, "CLASSIFICATION_TYPE": "U", "NORAD_CAT_ID": 30172, "ELEMENT_SET_NO": 999, "REV_AT_EPOCH": 96425, "BSTAR": 0.0022432829, "MEAN_MOTION_DOT": 4.186e-05, "MEAN_MOTION_DDOT": 0}, "tle": {"line1": "1 30172U 99025UD  25340.21057024  .00004186  00000+0  22433-2 0  9997", "line2": "2 30172  99.2335 319.0856 0068836 220.7129 159.5453 14.12414498964258"}}, "geometry": {"type": "Point", "coordinates": [-37.06732409178437, -19.730778284243584]}}]}